GONETS-M 13             
1 40554U 15020C   26088.18162310  .00000021  00000+0  81664-4 0  9993
2 40554  82.4806  80.5834 0014332 141.6758 218.5343 12.42867366498766
DMC3-FM1                
1 40715U 15032A   26088.19336836  .00001260  00000+0  15141-3 0  9994
2 40715  97.6587 316.4561 0004779 332.8229  27.2736 14.85644771578030
DMC3-FM2                
1 40716U 15032B   26088.21565432  .00000701  00000+0  86920-4 0  9997
2 40716  97.6640 317.9965 0005488 337.6195  22.4781 14.85646567578030
DMC3-FM3                
1 40717U 15032C   26088.17138896  .00000221  00000+0  31496-4 0  9998
2 40717  97.6693 319.6549 0004765 338.8665  21.2353 14.85643702578038
CARBONITE 1 (CBNT-1)    
1 40718U 15032D   26088.18503992  .00001750  00000+0  21962-3 0  9997
2 40718  97.6482 269.6238 0014177 191.7621 168.3265 14.83305859577489
DEORBITSAIL             
1 40719U 15032E   26088.14930945  .00012453  00000+0  93532-3 0  9990
2 40719  97.6005 306.5149 0013545 144.3665 215.8467 15.02669307579222
2015-049G               
1 40905U 15049G   26088.17244132  .00040729  00000+0  49256-3 0  9995
2 40905  97.4681 127.7558 0007159 141.0403 219.1371 15.60570966583943
LILACSAT-2              
1 40908U 15049K   26088.16110551  .00020366  00000+0  38064-3 0  9994
2 40908  97.4776 122.0685 0007847 168.7362 191.4065 15.48744735583354
COSMOS 2507 (RODNIK-S *)
1 40920U 15050A   26088.22064300  .00000009  00000+0 -72644-5 0  9994
2 40920  82.4909 129.4654 0010439 157.1862 202.9683 12.42923709476924
COSMOS 2508 (RODNIK-S *)
1 40921U 15050B   26088.17481427  .00000030  00000+0  14381-3 0  9997
2 40921  82.4859 128.0297 0013979 192.5115 167.5619 12.42911105476903
COSMOS 2509 (RODNIK-S *)
1 40922U 15050C   26088.19318002  .00000007  00000+0 -21238-4 0  9993
2 40922  82.4868 128.1123 0013913 210.4813 149.5459 12.42880879476945
LQSAT                   
1 40958U 15057A   26088.18255644  .00000798  00000+0  12072-3 0  9991
2 40958  97.6676  85.5347 0017151 167.0928 193.0725 14.76671347563501
LINGQIAO VIDEO A        
1 40959U 15057B   26088.23606402  .00001422  00000+0  20676-3 0  9994
2 40959  97.6621  86.9966 0016981 164.1280 196.0467 14.77276401563603
LINGQIAO VIDEO B        
1 40960U 15057C   26088.21830921  .00000991  00000+0  14584-3 0  9990
2 40960  97.6591  88.1632 0017123 164.4995 195.6744 14.77370544563640
JILIN-1                 
1 40961U 15057D   26088.19952353  .00001009  00000+0  14614-3 0  9997
2 40961  97.6520  91.5456 0017499 158.9853 201.2082 14.78027258563799
FOX-1A (AO-85)          
1 40967U 15058D   26088.18533543  .00003313  00000+0  30458-3 0  9993
2 40967  64.7757 167.5097 0128424  88.0848 273.4966 14.90493359101642
SINOD-D 1               
1 40968U 15058E   26088.17084885  .00004421  00000+0  36360-3 0  9992
2 40968  64.7753 149.3624 0116847  85.1490 276.2954 14.95235015104694
