[{"OBJECT_NAME":"GONETS-M 13","OBJECT_ID":"2015-020C","EPOCH":"2026-03-29T04:21:32.235840","MEAN_MOTION":12.42867366,"ECCENTRICITY":0.0014332,"INCLINATION":82.4806,"RA_OF_ASC_NODE":80.5834,"ARG_OF_PERICENTER":141.6758,"MEAN_ANOMALY":218.5343,"EPHEMERIS_TYPE":0,"CLASSIFICATION_TYPE":"U","NORAD_CAT_ID":40554,"ELEMENT_SET_NO":999,"REV_AT_EPOCH":49876,"BSTAR":8.1664e-5,"MEAN_MOTION_DOT":2.1e-7,"MEAN_MOTION_DDOT":0},{"OBJECT_NAME":"DMC3-FM1","OBJECT_ID":"2015-032A","EPOCH":"2026-03-29T04:38:27.026304","MEAN_MOTION":14.85644771,"ECCENTRICITY":0.0004779,"INCLINATION":97.6587,"RA_OF_ASC_NODE":316.4561,"ARG_OF_PERICENTER":332.8229,"MEAN_ANOMALY":27.2736,"EPHEMERIS_TYPE":0,"CLASSIFICATION_TYPE":"U","NORAD_CAT_ID":40715,"ELEMENT_SET_NO":999,"REV_AT_EPOCH":57803,"BSTAR":0.00015141,"MEAN_MOTION_DOT":1.26e-5,"MEAN_MOTION_DDOT":0},{"OBJECT_NAME":"DMC3-FM2","OBJECT_ID":"2015-032B","EPOCH":"2026-03-29T05:10:32.533248","MEAN_MOTION":14.85646567,"ECCENTRICITY":0.0005488,"INCLINATION":97.664,"RA_OF_ASC_NODE":317.9965,"ARG_OF_PERICENTER":337.6195,"MEAN_ANOMALY":22.4781,"EPHEMERIS_TYPE":0,"CLASSIFICATION_TYPE":"U","NORAD_CAT_ID":40716,"ELEMENT_SET_NO":999,"REV_AT_EPOCH":57803,"BSTAR":8.692e-5,"MEAN_MOTION_DOT":7.01e-6,"MEAN_MOTION_DDOT":0},{"OBJECT_NAME":"DMC3-FM3","OBJECT_ID":"2015-032C","EPOCH":"2026-03-29T04:06:48.006144","MEAN_MOTION":14.85643702,"ECCENTRICITY":0.0004765,"INCLINATION":97.6693,"RA_OF_ASC_NODE":319.6549,"ARG_OF_PERICENTER":338.8665,"MEAN_ANOMALY":21.2353,"EPHEMERIS_TYPE":0,"CLASSIFICATION_TYPE":"U","NORAD_CAT_ID":40717,"ELEMENT_SET_NO":999,"REV_AT_EPOCH":57803,"BSTAR":3.1496e-5,"MEAN_MOTION_DOT":2.21e-6,"MEAN_MOTION_DDOT":0},{"OBJECT_NAME":"CARBONITE 1 (CBNT-1)","OBJECT_ID":"2015-032D","EPOCH":"2026-03-29T04:26:27.449088","MEAN_MOTION":14.83305859,"ECCENTRICITY":0.0014177,"INCLINATION":97.6482,"RA_OF_ASC_NODE":269.6238,"ARG_OF_PERICENTER":191.7621,"MEAN_ANOMALY":168.3265,"EPHEMERIS_TYPE":0,"CLASSIFICATION_TYPE":"U","NORAD_CAT_ID":40718,"ELEMENT_SET_NO":999,"REV_AT_EPOCH":57748,"BSTAR":0.00021962,"MEAN_MOTION_DOT":1.75e-5,"MEAN_MOTION_DDOT":0},{"OBJECT_NAME":"DEORBITSAIL","OBJECT_ID":"2015-032E","EPOCH":"2026-03-29T03:35:00.336480","MEAN_MOTION":15.02669307,"ECCENTRICITY":0.0013545,"INCLINATION":97.6005,"RA_OF_ASC_NODE":306.5149,"ARG_OF_PERICENTER":144.3665,"MEAN_ANOMALY":215.8467,"EPHEMERIS_TYPE":0,"CLASSIFICATION_TYPE":"U","NORAD_CAT_ID":40719,"ELEMENT_SET_NO":999,"REV_AT_EPOCH":57922,"BSTAR":0.00093532,"MEAN_MOTION_DOT":0.00012453,"MEAN_MOTION_DDOT":0},{"OBJECT_NAME":"2015-049G","OBJECT_ID":"2015-049G","EPOCH":"2026-03-29T04:08:18.930048","MEAN_MOTION":15.60570966,"ECCENTRICITY":0.0007159,"INCLINATION":97.4681,"RA_OF_ASC_NODE":127.7558,"ARG_OF_PERICENTER":141.0403,"MEAN_ANOMALY":219.1371,"EPHEMERIS_TYPE":0,"CLASSIFICATION_TYPE":"U","NORAD_CAT_ID":40905,"ELEMENT_SET_NO":999,"REV_AT_EPOCH":58394,"BSTAR":0.00049256,"MEAN_MOTION_DOT":0.00040729,"MEAN_MOTION_DDOT":0},{"OBJECT_NAME":"LILACSAT-2","OBJECT_ID":"2015-049K","EPOCH":"2026-03-29T03:51:59.516064","MEAN_MOTION":15.48744735,"ECCENTRICITY":0.0007847,"INCLINATION":97.4776,"RA_OF_ASC_NODE":122.0685,"ARG_OF_PERICENTER":168.7362,"MEAN_ANOMALY":191.4065,"EPHEMERIS_TYPE":0,"CLASSIFICATION_TYPE":"U","NORAD_CAT_ID":40908,"ELEMENT_SET_NO":999,"REV_AT_EPOCH":58335,"BSTAR":0.00038064,"MEAN_MOTION_DOT":0.00020366,"MEAN_MOTION_DDOT":0},{"OBJECT_NAME":"COSMOS 2507 (RODNIK-S 13)","OBJECT_ID":"2015-050A","EPOCH":"2026-03-29T05:17:43.555200","MEAN_MOTION":12.42923709,"ECCENTRICITY":0.0010439,"INCLINATION":82.4909,"RA_OF_ASC_NODE":129.4654,"ARG_OF_PERICENTER":157.1862,"MEAN_ANOMALY":202.9683,"EPHEMERIS_TYPE":0,"CLASSIFICATION_TYPE":"U","NORAD_CAT_ID":40920,"ELEMENT_SET_NO":999,"REV_AT_EPOCH":47692,"BSTAR":-7.2644e-6,"MEAN_MOTION_DOT":9.0e-8,"MEAN_MOTION_DDOT":0},{"OBJECT_NAME":"COSMOS 2508 (RODNIK-S 14)","OBJECT_ID":"2015-050B","EPOCH":"2026-03-29T04:11:43.952928","MEAN_MOTION":12.42911105,"ECCENTRICITY":0.0013979,"INCLINATION":82.4859,"RA_OF_ASC_NODE":128.0297,"ARG_OF_PERICENTER":192.5115,"MEAN_ANOMALY":167.5619,"EPHEMERIS_TYPE":0,"CLASSIFICATION_TYPE":"U","NORAD_CAT_ID":40921,"ELEMENT_SET_NO":999,"REV_AT_EPOCH":47690,"BSTAR":0.00014381,"MEAN_MOTION_DOT":3.0e-7,"MEAN_MOTION_DDOT":0},{"OBJECT_NAME":"COSMOS 2509 (RODNIK-S 15)","OBJECT_ID":"2015-050C","EPOCH":"2026-03-29T04:38:10.753728","MEAN_MOTION":12.42880879,"ECCENTRICITY":0.0013913,"INCLINATION":82.4868,"RA_OF_ASC_NODE":128.1123,"ARG_OF_PERICENTER":210.4813,"MEAN_ANOMALY":149.5459,"EPHEMERIS_TYPE":0,"CLASSIFICATION_TYPE":"U","NORAD_CAT_ID":40922,"ELEMENT_SET_NO":999,"REV_AT_EPOCH":47694,"BSTAR":-2.1238e-5,"MEAN_MOTION_DOT":7.0e-8,"MEAN_MOTION_DDOT":0},{"OBJECT_NAME":"LQSAT","OBJECT_ID":"2015-057A","EPOCH":"2026-03-29T04:22:52.876416","MEAN_MOTION":14.76671347,"ECCENTRICITY":0.0017151,"INCLINATION":97.6676,"RA_OF_ASC_NODE":85.5347,"ARG_OF_PERICENTER":167.0928,"MEAN_ANOMALY":193.0725,"EPHEMERIS_TYPE":0,"CLASSIFICATION_TYPE":"U","NORAD_CAT_ID":40958,"ELEMENT_SET_NO":999,"REV_AT_EPOCH":56350,"BSTAR":0.00012072,"MEAN_MOTION_DOT":7.98e-6,"MEAN_MOTION_DDOT":0},{"OBJECT_NAME":"LINGQIAO VIDEO A","OBJECT_ID":"2015-057B","EPOCH":"2026-03-29T05:39:55.931328","MEAN_MOTION":14.77276401,"ECCENTRICITY":0.0016981,"INCLINATION":97.6621,"RA_OF_ASC_NODE":86.9966,"ARG_OF_PERICENTER":164.128,"MEAN_ANOMALY":196.0467,"EPHEMERIS_TYPE":0,"CLASSIFICATION_TYPE":"U","NORAD_CAT_ID":40959,"ELEMENT_SET_NO":999,"REV_AT_EPOCH":56360,"BSTAR":0.00020676,"MEAN_MOTION_DOT":1.422e-5,"MEAN_MOTION_DDOT":0},{"OBJECT_NAME":"LINGQIAO VIDEO B","OBJECT_ID":"2015-057C","EPOCH":"2026-03-29T05:14:21.915744","MEAN_MOTION":14.77370544,"ECCENTRICITY":0.0017123,"INCLINATION":97.6591,"RA_OF_ASC_NODE":88.1632,"ARG_OF_PERICENTER":164.4995,"MEAN_ANOMALY":195.6744,"EPHEMERIS_TYPE":0,"CLASSIFICATION_TYPE":"U","NORAD_CAT_ID":40960,"ELEMENT_SET_NO":999,"REV_AT_EPOCH":56364,"BSTAR":0.00014584,"MEAN_MOTION_DOT":9.91e-6,"MEAN_MOTION_DDOT":0},{"OBJECT_NAME":"JILIN-1","OBJECT_ID":"2015-057D","EPOCH":"2026-03-29T04:47:18.832992","MEAN_MOTION":14.78027258,"ECCENTRICITY":0.0017499,"INCLINATION":97.652,"RA_OF_ASC_NODE":91.5456,"ARG_OF_PERICENTER":158.9853,"MEAN_ANOMALY":201.2082,"EPHEMERIS_TYPE":0,"CLASSIFICATION_TYPE":"U","NORAD_CAT_ID":40961,"ELEMENT_SET_NO":999,"REV_AT_EPOCH":56379,"BSTAR":0.00014614,"MEAN_MOTION_DOT":1.009e-5,"MEAN_MOTION_DDOT":0},{"OBJECT_NAME":"FOX-1A (AO-85)","OBJECT_ID":"2015-058D","EPOCH":"2026-03-29T04:26:52.981152","MEAN_MOTION":14.90493359,"ECCENTRICITY":0.0128424,"INCLINATION":64.7757,"RA_OF_ASC_NODE":167.5097,"ARG_OF_PERICENTER":88.0848,"MEAN_ANOMALY":273.4966,"EPHEMERIS_TYPE":0,"CLASSIFICATION_TYPE":"U","NORAD_CAT_ID":40967,"ELEMENT_SET_NO":999,"REV_AT_EPOCH":10164,"BSTAR":0.00030458,"MEAN_MOTION_DOT":3.313e-5,"MEAN_MOTION_DDOT":0},{"OBJECT_NAME":"SINOD-D 1","OBJECT_ID":"2015-058E","EPOCH":"2026-03-29T04:06:01.340640","MEAN_MOTION":14.95235015,"ECCENTRICITY":0.0116847,"INCLINATION":64.7753,"RA_OF_ASC_NODE":149.3624,"ARG_OF_PERICENTER":85.149,"MEAN_ANOMALY":276.2954,"EPHEMERIS_TYPE":0,"CLASSIFICATION_TYPE":"U","NORAD_CAT_ID":40968,"ELEMENT_SET_NO":999,"REV_AT_EPOCH":10469,"BSTAR":0.0003636,"MEAN_MOTION_DOT":4.421e-5,"MEAN_MOTION_DDOT":0}]
